OBJECT_NAME,OBJECT_ID,EPOCH,MEAN_MOTION,ECCENTRICITY,INCLINATION,RA_OF_ASC_NODE,ARG_OF_PERICENTER,MEAN_ANOMALY,EPHEMERIS_TYPE,CLASSIFICATION_TYPE,NORAD_CAT_ID,ELEMENT_SET_NO,REV_AT_EPOCH,BSTAR,MEAN_MOTION_DOT,MEAN_MOTION_DDOT
AGILA,2024-252C,2026-06-14T23:41:38.859648,1.00270920,.00007532,0.0651,124.4903,0.3410,286.0041,0,U,62456,999,513,0,-.177E-5,0
NUVIEW BRAVO,2024-252D,2026-06-15T03:50:38.657760,1.00270154,.00018369,0.0710,148.9470,334.9418,114.1030,0,U,62457,999,377,0,-.211E-5,0
THURAYA-4,2025-001A,2026-06-15T00:35:38.687712,1.00272022,.00002529,0.0244,61.2066,208.6331,46.6976,0,U,62483,999,415,0,.144E-5,0
SHIJIAN-25 (SJ-25),2025-002A,2026-06-14T17:51:56.299104,1.00268788,.0052265,5.1074,61.1793,173.3034,63.8582,0,U,62485,999,533,0,-.348E-5,0
TJS-14,2025-017A,2026-06-15T06:18:13.354848,1.00273402,.00009775,0.7868,295.4923,290.4528,150.5394,0,U,62804,999,525,0,.12E-5,0
SPAINSAT NG I,2025-021A,2026-06-14T23:30:35.428608,1.00270333,.00004218,0.0168,337.9571,238.0593,68.9056,0,U,62852,999,396,0,.156E-5,0
QZS-6 (MICHIBIKI-6),2025-023A,2026-06-15T00:25:51.908160,1.00271178,.00016947,0.0485,67.8725,22.6056,269.8216,0,U,62876,999,492,0,-.228E-5,0
ZHONGXING-10R,2025-036A,2026-06-15T06:44:33.330048,1.00273970,.00034138,0.0313,243.1223,258.8438,333.2729,0,U,63075,999,494,0,-.349E-5,0
TJS-15,2025-045A,2026-06-14T18:29:34.981728,1.00272135,.0004664,0.2791,85.5342,296.2276,253.0916,0,U,63157,999,473,0,-.259E-5,0
TIANLIAN 2-04,2025-062A,2026-06-14T22:02:34.889568,1.00271707,.0031729,4.3806,274.4742,10.2848,29.1491,0,U,63361,999,458,0,-.126E-5,0
TJS-16,2025-064A,2026-06-14T17:26:02.362272,1.00271304,.0003354,1.0918,81.4683,288.7464,314.9259,0,U,63397,999,436,0,-.1E-5,0
TJS-17,2025-073A,2026-06-14T17:04:08.449824,1.00271885,.0002078,1.0576,82.7133,295.5126,305.3480,0,U,63524,999,426,0,-.64E-6,0
TIANLIAN 2-05,2025-084A,2026-06-14T23:56:07.224576,1.00269397,.00030959,4.4569,279.8619,146.1561,216.6581,0,U,63662,999,436,0,.133E-5,0
TJS-19,2025-097A,2026-06-14T18:12:15.816960,1.00266243,.0002317,3.2906,317.4031,241.3714,118.5316,0,U,63924,999,411,0,-.27E-5,0
CHINASAT 3B,2025-106A,2026-06-15T05:18:01.300896,1.00270250,.00029271,0.0211,86.1661,39.9673,24.1991,0,U,64062,999,404,0,-.41E-6,0
SXM-10,2025-122A,2026-06-15T00:23:38.718240,1.00271714,.00017158,0.0180,20.5552,338.6402,153.8564,0,U,64290,999,366,0,-.12E-6,0
COSMOS 2589,2025-131A,2026-06-14T18:14:15.837792,1.00268355,.0000384,0.0377,81.7012,104.6528,88.2208,0,U,64467,999,353,0,-.284E-5,0
CHINASAT 9C,2025-132A,2026-06-15T01:16:38.720352,1.00268097,.0002547,0.0175,0.4195,82.3849,291.9042,0,U,64470,999,412,0,0,0
MTG-S1,2025-143A,2026-06-15T06:11:58.954272,1.00271856,.0000986,0.6050,338.5232,10.9094,3.6370,0,U,64723,999,340,0,-.28E-6,0
DROR 1,2025-148A,2026-06-15T06:11:51.465984,1.00271814,.0002535,0.0304,58.4484,329.6679,324.3905,0,U,64784,999,327,0,-.31E-6,0
SHIYAN-29,2025-196A,2026-06-09T01:48:31.441824,1.00256520,.00109724,28.8121,18.6391,171.7452,188.2752,0,U,65486,999,279,0,-.259E-5,0
NUSANTARA LIMA (NUSANTARA 5),2025-205A,2026-06-15T06:44:55.794048,1.00268511,.00000297,0.0326,123.2595,80.5448,273.8477,0,U,65588,999,270,0,-.354E-5,0
TJS-20,2025-238A,2026-06-14T23:40:12.006912,1.00273813,.00045045,5.4746,299.5647,162.3420,218.8477,0,U,66142,999,231,0,.32E-6,0
CMS-03 (GSAT-7R),2025-249B,2026-06-15T04:42:21.731040,1.00270098,.00015022,0.0170,7.8713,72.6931,327.4998,0,U,66311,999,232,0,0,0
VIASAT-3 F2,2025-261A,2026-06-14T14:26:31.299360,1.00271296,.00001368,0.0513,158.2746,130.5402,111.7385,0,U,66454,999,276,0,-.227E-5,0
SHIJIAN-28 (SJ-28),2025-277A,2026-06-15T06:46:18.162624,1.00263446,.00008426,4.5432,272.1662,348.4400,221.2716,0,U,66549,999,213,0,-.352E-5,0
TJS-22,2025-290A,2026-06-14T21:10:42.700224,1.00273242,.00019034,1.5340,286.5239,330.4224,30.3810,0,U,66990,999,200,0,0,0
TJS-23,2025-306A,2026-06-14T14:36:52.504128,1.00274876,.00053578,5.5937,297.5015,169.3915,190.7745,0,U,67226,999,186,0,.28E-6,0
FENGYUN 4C,2025-312A,2026-06-15T06:50:55.219776,1.00271817,.00005051,0.0513,147.2051,69.4397,282.6522,0,U,67246,999,176,0,-.319E-5,0
SHIJIAN-29A (SJ-29A),2025-315A,2026-06-15T04:52:21.721152,1.00269555,.00030861,3.3928,95.1569,25.6364,288.9873,0,U,67302,999,159,0,-.65E-6,0
SHIJIAN-29B (SJ-29B),2025-315C,2026-06-15T00:22:08.697216,1.00269345,.00036952,3.3911,95.1539,33.1020,213.8279,0,U,67403,999,166,0,-.65E-6,0
ELEKTRO-L 5,2026-028A,2026-06-14T01:26:27.725568,1.00271153,.00017512,0.2571,310.4463,180.7679,228.8062,0,U,67756,999,122,0,-.88E-6,0
