AGILA                   
1 62456U 24252C   26165.98725532 -.00000177  00000+0  00000+0 0  9993
2 62456   0.0651 124.4903 0000753   0.3410 286.0041  1.00270920  5134
NUVIEW BRAVO            
1 62457U 24252D   26166.16016965 -.00000211  00000+0  00000+0 0  9997
2 62457   0.0710 148.9470 0001836 334.9418 114.1030  1.00270154  3774
THURAYA-4               
1 62483U 25001A   26166.02475333  .00000144  00000+0  00000+0 0  9996
2 62483   0.0244  61.2066 0000252 208.6331  46.6976  1.00272022  4152
SHIJIAN-25 (SJ-25)      
1 62485U 25002A   26165.74440161 -.00000348  00000+0  00000+0 0  9995
2 62485   5.1074  61.1793 0052265 173.3034  63.8582  1.00268788  5335
TJS-14                  
1 62804U 25017A   26166.26265457  .00000120  00000+0  00000+0 0  9994
2 62804   0.7868 295.4923 0000977 290.4528 150.5394  1.00273402  5256
SPAINSAT NG I           
1 62852U 25021A   26165.97957672  .00000156  00000+0  00000+0 0  9995
2 62852   0.0168 337.9571 0000421 238.0593  68.9056  1.00270333  3963
QZS-6 (MICHIBIKI-6)     
1 62876U 25023A   26166.01796190 -.00000228  00000+0  00000+0 0  9996
2 62876   0.0485  67.8725 0001694  22.6056 269.8216  1.00271178  4920
ZHONGXING-10R           
1 63075U 25036A   26166.28094132 -.00000349  00000+0  00000+0 0  9992
2 63075   0.0313 243.1223 0003413 258.8438 333.2729  1.00273970  4941
TJS-15                  
1 63157U 25045A   26165.77054377 -.00000259  00000+0  00000+0 0  9993
2 63157   0.2791  85.5342 0004664 296.2276 253.0916  1.00272135  4735
TIANLIAN 2-04           
1 63361U 25062A   26165.91845937 -.00000126  00000+0  00000+0 0  9998
2 63361   4.3806 274.4742 0031729  10.2848  29.1491  1.00271707  4585
TJS-16                  
1 63397U 25064A   26165.72641623 -.00000100  00000+0  00000+0 0  9996
2 63397   1.0918  81.4683 0003354 288.7464 314.9259  1.00271304  4367
TJS-17                  
1 63524U 25073A   26165.71120891 -.00000064  00000+0  00000+0 0  9995
2 63524   1.0576  82.7133 0002078 295.5126 305.3480  1.00271885  4269
TIANLIAN 2-05           
1 63662U 25084A   26165.99730584  .00000133  00000+0  00000+0 0  9992
2 63662   4.4569 279.8619 0003095 146.1561 216.6581  1.00269397  4365
TJS-19                  
1 63924U 25097A   26165.75851640 -.00000270  00000+0  00000+0 0  9991
2 63924   3.2906 317.4031 0002317 241.3714 118.5316  1.00266243  4115
CHINASAT 3B             
1 64062U 25106A   26166.22084839 -.00000041  00000+0  00000+0 0  9993
2 64062   0.0211  86.1661 0002927  39.9673  24.1991  1.00270250  4040
SXM-10                  
1 64290U 25122A   26166.01642035 -.00000012  00000+0  00000+0 0  9997
2 64290   0.0180  20.5552 0001715 338.6402 153.8564  1.00271714  3661
COSMOS 2589             
1 64467U 25131A   26165.75990553 -.00000284  00000+0  00000+0 0  9995
2 64467   0.0377  81.7012 0000384 104.6528  88.2208  1.00268355  3535
CHINASAT 9C             
1 64470U 25132A   26166.05322593  .00000000  00000+0  00000+0 0  9992
2 64470   0.0175   0.4195 0002547  82.3849 291.9042  1.00268097  4124
MTG-S1                  
1 64723U 25143A   26166.25832123 -.00000028  00000+0  00000+0 0  9993
2 64723   0.6050 338.5232 0000986  10.9094   3.6370  1.00271856  3403
DROR 1                  
1 64784U 25148A   26166.25823456 -.00000031  00000+0  00000+0 0  9998
2 64784   0.0304  58.4484 0002535 329.6679 324.3905  1.00271814  3270
SHIYAN-29               
1 65486U 25196A   26160.07536391 -.00000259  00000+0  00000+0 0  9996
2 65486  28.8121  18.6391 0010972 171.7452 188.2752  1.00256520  2799
NUSANTARA LIMA (NUSANT*)
1 65588U 25205A   26166.28120132 -.00000354  00000+0  00000+0 0  9997
2 65588   0.0326 123.2595 0000029  80.5448 273.8477  1.00268511  2703
TJS-20                  
1 66142U 25238A   26165.98625008  .00000032  00000+0  00000+0 0  9990
2 66142   5.4746 299.5647 0004504 162.3420 218.8477  1.00273813  2318
CMS-03 (GSAT-7R)        
1 66311U 25249B   26166.19608485  .00000000  00000+0  00000+0 0  9999
2 66311   0.0170   7.8713 0001502  72.6931 327.4998  1.00270098  2325
VIASAT-3 F2             
1 66454U 25261A   26165.60175115 -.00000227  00000+0  00000+0 0  9997
2 66454   0.0513 158.2746 0000136 130.5402 111.7385  1.00271296  2763
SHIJIAN-28 (SJ-28)      
1 66549U 25277A   26166.28215466 -.00000352  00000+0  00000+0 0  9997
2 66549   4.5432 272.1662 0000842 348.4400 221.2716  1.00263446  2136
TJS-22                  
1 66990U 25290A   26165.88243866  .00000000  00000+0  00000+0 0  9991
2 66990   1.5340 286.5239 0001903 330.4224  30.3810  1.00273242  2009
TJS-23                  
1 67226U 25306A   26165.60894102  .00000028  00000+0  00000+0 0  9997
2 67226   5.5937 297.5015 0005357 169.3915 190.7745  1.00274876  1860
FENGYUN 4C              
1 67246U 25312A   26166.28536134 -.00000319  00000+0  00000+0 0  9993
2 67246   0.0513 147.2051 0000505  69.4397 282.6522  1.00271817  1762
SHIJIAN-29A (SJ-29A)    
1 67302U 25315A   26166.20302918 -.00000065  00000+0  00000+0 0  9990
2 67302   3.3928  95.1569 0003086  25.6364 288.9873  1.00269555  1596
SHIJIAN-29B (SJ-29B)    
1 67403U 25315C   26166.01537844 -.00000065  00000+0  00000+0 0  9999
2 67403   3.3911  95.1539 0003695  33.1020 213.8279  1.00269345  1668
ELEKTRO-L 5             
1 67756U 26028A   26165.06004312 -.00000088  00000+0  00000+0 0  9990
2 67756   0.2571 310.4463 0001751 180.7679 228.8062  1.00271153  1224
